STARLINK-32617          
1 62076U 24217V   26068.62945605  .00028729  00000+0  97861-3 0  9997
2 62076  53.1607 181.2847 0001102  83.9922 276.1205 15.30191631 73590
TEVEL2-6                
1 63215U 25052F   26068.64958975  .00021046  00000+0  70909-3 0  9996
2 63215  97.4016 325.0381 0004769  95.6604 264.5181 15.30760889 54861
